NORAD_CAT_ID,OBJECT_NAME,OBJECT_TYPE,EPOCH,MEAN_MOTION,ECCENTRICITY,INCLINATION,RA_OF_ASC_NODE,ARG_OF_PERICENTER,MEAN_ANOMALY,BSTAR,MEAN_MOTION_DOT,MEAN_MOTION_DDOT,TLE_LINE0,TLE_LINE1,TLE_LINE2,SEMIMAJOR_AXIS,PERIOD,APOGEE,PERIGEE,DECAYED
53272.0,STARLINK-4122,PAYLOAD,2023-03-26 04:47:41,15.08804589,0.0001573,53.2167,350.1384,65.621,294.4946,0.0022814,0.00036172,0.0,0 STARLINK-4122,1 53272U 22086AG  23085.19978556  .00036172  00000-0  22814-2 0  9993,2 53272  53.2167 350.1384 0001573  65.6210 294.4946 15.08804589 38057,6917.989,95.44,540.942,538.765,0.0
53272.0,STARLINK-4122,PAYLOAD,2023-03-26 22:16:56,15.08851469,0.0001628,53.2178,346.8691,64.2231,295.8929,0.0020941,0.00033208,0.0,0 STARLINK-4122,1 53272U 22086AG  23085.92843120  .00033208  00000-0  20941-2 0  9998,2 53272  53.2178 346.8691 0001628  64.2231 295.8929 15.08851469 38348,6917.845,95.437,540.837,538.584,0.0
53272.0,STARLINK-4122,PAYLOAD,2023-03-26 23:52:19,15.08857047,0.00016,53.2179,346.5713,64.2234,295.8923,0.0021801,0.00034595,0.0,0 STARLINK-4122,1 53272U 22086AG  23085.99467036  .00034595  00000-0  21801-2 0  9999,2 53272  53.2179 346.5713 0001600  64.2234 295.8923 15.08857047 38357,6917.828,95.436,540.8,538.586,0.0
53272.0,STARLINK-4122,PAYLOAD,2023-03-27 20:32:19,15.08870592,0.0001304,53.2182,342.7039,61.9865,298.1259,0.0014295,0.00022555,0.0,0 STARLINK-4122,1 53272U 22086AG  23086.85578211  .00022555  00000-0  14295-2 0  9995,2 53272  53.2182 342.7039 0001304  61.9865 298.1259 15.08870592 38308,6917.787,95.436,540.554,538.75,0.0
53272.0,STARLINK-4122,PAYLOAD,2023-03-27 22:07:42,15.08872429,0.0001489,53.2182,342.407,68.9441,291.171,0.0015402,0.00024331,0.0,0 STARLINK-4122,1 53272U 22086AG  23086.92202157  .00024331  00000-0  15402-2 0  9991,2 53272  53.2182 342.4070 0001489  68.9441 291.1710 15.08872429 38497,6917.781,95.436,540.676,538.616,0.0
53272.0,STARLINK-4122,PAYLOAD,2023-03-27 23:43:05,15.08871808,0.0001338,53.218,342.1107,71.5854,288.5283,0.0019871,0.00031506,0.0,0 STARLINK-4122,1 53272U 22086AG  23086.98826006  .00031506  00000-0  19871-2 0  9998,2 53272  53.2180 342.1107 0001338  71.5854 288.5283 15.08871808 38501,6917.783,95.436,540.574,538.723,0.0
53272.0,STARLINK-4122,PAYLOAD,2023-03-28 20:23:06,15.08850443,0.0001177,53.2185,338.2458,94.6344,265.4782,0.00099424,0.00015575,0.0,0 STARLINK-4122,1 53272U 22086AG  23087.84937977  .00015575  00000-0  99424-3 0  9995,2 53272  53.2185 338.2458 0001177  94.6344 265.4782 15.08850443 38636,6917.848,95.437,540.528,538.899,0.0
53272.0,STARLINK-4122,PAYLOAD,2023-03-28 23:33:52,15.08856154,0.0001458,53.2186,337.6515,90.2294,269.8865,0.00041784,6.371e-05,0.0,0 STARLINK-4122,1 53272U 22086AG  23087.98185667  .00006371  00000-0  41784-3 0  9991,2 53272  53.2186 337.6515 0001458  90.2294 269.8865 15.08856154 38479,6917.831,95.437,540.705,538.687,0.0
53272.0,STARLINK-4122,PAYLOAD,2023-03-29 02:44:38,15.08863007,0.0001314,53.2178,337.0538,84.2672,275.847,0.00067675,0.00010506,0.0,0 STARLINK-4122,1 53272U 22086AG  23088.11433456  .00010506  00000-0  67675-3 0  9991,2 53272  53.2178 337.0538 0001314  84.2672 275.8470 15.08863007 38679,6917.81,95.436,540.584,538.766,0.0
53272.0,STARLINK-4122,PAYLOAD,2023-03-29 20:13:53,15.08837395,0.0001459,53.2179,333.784,98.1954,261.9203,0.00053383,8.218e-05,0.0,0 STARLINK-4122,1 53272U 22086AG  23088.84298156  .00008218  00000-0  53383-3 0  9995,2 53272  53.2179 333.7840 0001459  98.1954 261.9203 15.08837395 38600,6917.888,95.438,540.763,538.744,0.0
53272.0,STARLINK-4122,PAYLOAD,2023-03-30 02:35:26,15.08858076,0.0001263,53.2176,332.594,75.9426,284.1706,0.0013066,0.00020578,0.0,0 STARLINK-4122,1 53272U 22086AG  23089.10794027  .00020578  00000-0  13066-2 0  9999,2 53272  53.2176 332.5940 0001263  75.9426 284.1706 15.08858076 38643,6917.825,95.436,540.564,538.816,0.0
53272.0,STARLINK-4122,PAYLOAD,2023-03-31 00:50:50,15.08862778,9.99e-05,53.2168,328.4311,72.3138,287.7963,0.0020151,0.00031948,0.0,0 STARLINK-4122,1 53272U 22086AG  23090.03530270  .00031948  00000-0  20151-2 0  9997,2 53272  53.2168 328.4311 0000999  72.3138 287.7963 15.08862778 38789,6917.811,95.436,540.367,538.985,0.0
53272.0,STARLINK-4122,PAYLOAD,2023-03-31 19:55:28,15.08843013,0.0001015,53.2166,324.8631,49.4858,310.6222,0.00091757,0.00014347,0.0,0 STARLINK-4122,1 53272U 22086AG  23090.83018713  .00014347  00000-0  91757-3 0  9993,2 53272  53.2166 324.8631 0001015  49.4858 310.6222 15.08843013 38905,6917.871,95.437,540.438,539.034,0.0
53272.0,STARLINK-4122,PAYLOAD,2023-04-01 02:17:00,15.08856914,9.36e-05,53.2167,323.6732,84.5042,275.6057,0.0013924,0.00021952,0.0,0 STARLINK-4122,1 53272U 22086AG  23091.09514401  .00021952  00000-0  13924-2 0  9996,2 53272  53.2167 323.6732 0000936  84.5042 275.6057 15.08856914 38945,6917.829,95.436,540.341,539.046,0.0
53272.0,STARLINK-4122,PAYLOAD,2023-04-01 21:21:39,15.08831051,0.0001231,53.2168,320.1015,92.2344,267.8789,0.00092054,0.00014389,0.0,0 STARLINK-4122,1 53272U 22086AG  23091.89003619  .00014389  00000-0  92054-3 0  9996,2 53272  53.2168 320.1015 0001231  92.2344 267.8789 15.08831051 39066,6917.908,95.438,540.624,538.921,0.0
53272.0,STARLINK-4122,PAYLOAD,2023-04-02 14:50:53,15.08849864,0.000114,53.2171,316.8339,76.776,283.336,0.0010954,0.00017193,0.0,0 STARLINK-4122,1 53272U 22086AG  23092.61867821  .00017193  00000-0  10954-2 0  9994,2 53272  53.2171 316.8339 0001140  76.7760 283.3360 15.08849864 39350,6917.85,95.437,540.504,538.927,0.0
53272.0,STARLINK-4122,PAYLOAD,2023-04-02 21:12:26,15.08860472,0.0001001,53.2164,315.6453,50.207,309.9011,0.0011408,0.00017925,0.0,0 STARLINK-4122,1 53272U 22086AG  23092.88363487  .00017925  00000-0  11408-2 0  9990,2 53272  53.2164 315.6453 0001001  50.2070 309.9011 15.08860472 39393,6917.818,95.436,540.375,538.99,0.0
53272.0,STARLINK-4122,PAYLOAD,2023-04-03 00:23:12,15.08865491,0.0001049,53.2159,315.0507,53.3299,306.7789,0.0011209,0.00017609,0.0,0 STARLINK-4122,1 53272U 22086AG  23093.01611260  .00017609  00000-0  11209-2 0  9999,2 53272  53.2159 315.0507 0001049  53.3299 306.7789 15.08865491 39236,6917.802,95.436,540.393,538.942,0.0
53272.0,STARLINK-4122,PAYLOAD,2023-04-03 21:03:12,15.0886043,8.84e-05,53.2164,311.186,52.614,307.4932,0.00069372,0.00010776,0.0,0 STARLINK-4122,1 53272U 22086AG  23093.87722856  .00010776  00000-0  69372-3 0  9990,2 53272  53.2164 311.1860 0000884  52.6140 307.4932 15.08860430 39364,6917.818,95.436,540.294,539.071,0.0
53272.0,STARLINK-4122,PAYLOAD,2023-04-04 00:13:58,15.0886285,9.2e-05,53.2159,310.5903,61.3247,298.7837,0.00077974,0.00012151,0.0,0 STARLINK-4122,1 53272U 22086AG  23094.00970699  .00012151  00000-0  77974-3 0  9992,2 53272  53.2159 310.5903 0000920  61.3247 298.7837 15.08862850 39561,6917.811,95.436,540.312,539.039,0.0
53272.0,STARLINK-4122,PAYLOAD,2023-04-04 20:53:59,15.08846435,8.91e-05,53.2153,306.7239,68.7449,291.3638,0.00034344,5.183e-05,0.0,0 STARLINK-4122,1 53272U 22086AG  23094.87082721  .00005183  00000-0  34344-3 0  9998,2 53272  53.2153 306.7239 0000891  68.7449 291.3638 15.08846435 39510,6917.861,95.437,540.342,539.109,0.0
53272.0,STARLINK-4122,PAYLOAD,2023-04-05 00:04:45,15.08847745,8.68e-05,53.2153,306.1292,68.932,291.1765,0.00045398,6.946e-05,0.0,0 STARLINK-4122,1 53272U 22086AG  23095.00330718  .00006946  00000-0  45398-3 0  9995,2 53272  53.2153 306.1292 0000868  68.9320 291.1765 15.08847745 39713,6917.857,95.437,540.322,539.121,0.0
53272.0,STARLINK-4122,PAYLOAD,2023-04-05 20:44:46,15.08841869,8.91e-05,53.2145,302.2619,68.4394,291.6693,7.0762e-05,8.39e-06,0.0,0 STARLINK-4122,1 53272U 22086AG  23095.86442974  .00000839  00000-0  70762-4 0  9996,2 53272  53.2145 302.2619 0000891  68.4394 291.6693 15.08841869 39666,6917.875,95.437,540.356,539.123,0.0
53272.0,STARLINK-4122,PAYLOAD,2023-04-06 12:38:38,15.08839036,0.0001196,53.2172,299.2919,94.2362,265.8767,0.00011097,1.479e-05,0.0,0 STARLINK-4122,1 53272U 22086AG  23096.52683311  .00001479  00000-0  11097-3 0  9998,2 53272  53.2172 299.2919 0001196  94.2362 265.8767 15.08839036 39944,6917.883,95.438,540.576,538.921,0.0
53272.0,STARLINK-4122,PAYLOAD,2023-04-06 15:49:24,15.0884176,0.0001179,53.2168,298.6961,100.7125,259.4,-0.0001485,-2.651e-05,0.0,0 STARLINK-4122,1 53272U 22086AG  23096.65931172 -.00002651  00000-0 -14850-3 0  9998,2 53272  53.2168 298.6961 0001179 100.7125 259.4000 15.08841760 39968,6917.875,95.437,540.556,538.924,0.0
53272.0,STARLINK-4122,PAYLOAD,2023-04-07 06:07:52,15.08840493,0.0001404,53.2144,296.0187,71.3919,288.7226,0.00010781,1.428e-05,0.0,0 STARLINK-4122,1 53272U 22086AG  23097.25547388  .00001428  00000-0  10781-3 0  9995,2 53272  53.2144 296.0187 0001404  71.3919 288.7226 15.08840493 39876,6917.879,95.438,540.715,538.773,0.0
53272.0,STARLINK-4122,PAYLOAD,2023-04-08 05:58:40,15.08833328,8.78e-05,53.2159,291.5589,87.052,273.0572,-8.6709e-05,-1.667e-05,0.0,0 STARLINK-4122,1 53272U 22086AG  23098.24907459 -.00001667  00000-0 -86709-4 0  9995,2 53272  53.2159 291.5589 0000878  87.0520 273.0572 15.08833328 40023,6917.901,95.438,540.373,539.158,0.0
53272.0,STARLINK-4122,PAYLOAD,2023-04-09 12:11:00,15.08834769,7.92e-05,53.2154,285.908,80.1332,279.9749,6.0776e-05,6.8e-06,0.0,0 STARLINK-4122,1 53272U 22086AG  23099.50764011  .00000680  00000-0  60776-4 0  9998,2 53272  53.2154 285.9080 0000792  80.1332 279.9749 15.08834769 40213,6917.896,95.438,540.309,539.213,0.0
53272.0,STARLINK-4122,PAYLOAD,2023-04-09 18:32:32,15.08845545,9.6e-05,53.2156,284.7182,81.6458,278.4643,0.00029516,4.413e-05,0.0,0 STARLINK-4122,1 53272U 22086AG  23099.77259777  .00004413  00000-0  29516-3 0  9999,2 53272  53.2156 284.7182 0000960  81.6458 278.4643 15.08845545 40432,6917.863,95.437,540.393,539.064,0.0
53272.0,STARLINK-4122,PAYLOAD,2023-04-10 05:40:14,15.08849655,0.000107,53.2154,282.6366,80.0891,280.0222,0.00046212,7.076e-05,0.0,0 STARLINK-4122,1 53272U 22086AG  23100.23627774  .00007076  00000-0  46212-3 0  9999,2 53272  53.2154 282.6366 0001070  80.0891 280.0222 15.08849655 40324,6917.851,95.437,540.456,538.976,0.0
